ONEWEB-0116             
1 48046U 21025E   25212.49512281 -.00000169  00000+0 -49862-3 0  9995
2 48046  87.8970  23.9134 0001941  92.8034 267.3317 13.13468849211556
ONEWEB-0150             
1 48047U 21025F   25212.47142828  .00000370  00000+0  97939-3 0  9990
2 48047  87.8966  23.9137 0001670  96.9473 263.1846 13.13469364211448
ONEWEB-0107             
1 48048U 21025G   25212.54929809  .00000391  00000+0  10351-2 0  9996
2 48048  87.8966  23.8965 0001518  86.4215 273.7088 13.13469693211435
ONEWEB-0101             
1 48049U 21025H   25212.51203833 -.00000204  00000+0 -59447-3 0  9991
2 48049  87.8969  23.9433 0001737  87.1474 272.9854 13.13471981211400
ONEWEB-0113             
1 48050U 21025J   25212.50424013 -.00000216  00000+0 -62221-3 0  9994
2 48050  87.8966  23.8933 0001869  95.0906 265.0436 13.13975792211494
ONEWEB-0112             
1 48051U 21025K   25212.47819959  .00000301  00000+0  78911-3 0  9994
2 48051  87.8965  23.9071 0001714  93.9675 266.1650 13.13468718211492
ONEWEB-0156             
1 48052U 21025L   25212.48665776  .00000055  00000+0  11549-3 0  9992
2 48052  87.8967  23.9178 0001644  92.8731 267.2587 13.13469304211477
ONEWEB-0161             
1 48053U 21025M   25212.46127630  .00000353  00000+0  93050-3 0  9991
2 48053  87.8968  23.9413 0001583  90.4838 269.6473 13.13472096211400
